COSMOS 2534 [GLONASS-M] 
1 44299U 19030A   26174.20089889  .00000095  00000+0  00000+0 0  9997
2 44299  64.3690 192.4139 0013464 275.0352 157.6045  2.13102283 55054
BEIDOU-3 IGSO-2         
1 44337U 19035A   26174.86225344 -.00000062  00000+0  00000+0 0  9990
2 44337  55.2489 158.8038 0039423 216.4706 326.6444  1.00264372 25737
NAVSTAR 78 (USA 293)    
1 44506U 19056A   26174.86769734 -.00000103  00000+0  00000+0 0  9993
2 44506  55.6337 330.8764 0062316 197.6606 333.5530  2.00570063 50206
BEIDOU-3 M24            
1 44542U 19061A   26173.61199497  .00000094  00000+0  00000+0 0  9992
2 44542  54.3965 182.5445 0008447 358.6197   1.4065  1.86229121 45898
BEIDOU-3 M23            
1 44543U 19061B   26174.55218917  .00000102  00000+0  00000+0 0  9996
2 44543  54.3954 182.4810 0005823 338.7823 203.1503  1.86227312 45913
EUTELSAT 5 WEST B       
1 44624U 19067A   26175.16948662 -.00000035  00000+0  00000+0 0  9993
2 44624   0.0618   0.0565 0003314  92.7711 235.5123  1.00271152 24502
BEIDOU-3 M22            
1 44793U 19078A   26173.98886353 -.00000107  00000+0  00000+0 0  9998
2 44793  53.9301 299.6233 0006249  51.2109 308.8401  1.86227077 44757
BEIDOU-3 M21            
1 44794U 19078B   26171.44396153 -.00000092  00000+0  00000+0 0  9995
2 44794  53.9054 299.6746 0003921  48.8810 311.1504  1.86227692 44717
COSMOS 2544 [GLONASS-M] 
1 44850U 19088A   26175.06827285 -.00000068  00000+0  00000+0 0  9999
2 44850  65.5696  73.5010 0012943 257.9602 101.9270  2.13102868 50866
BEIDOU-3 M19            
1 44864U 19090A   26175.14393486 -.00000095  00000+0  00000+0 0  9997
2 44864  56.5651  62.5599 0017616 297.8463 220.1810  1.86231464 44368
BEIDOU-3 M20            
1 44865U 19090B   26174.50609265 -.00000095  00000+0  00000+0 0  9992
2 44865  56.5662  62.6156 0015378 312.2472 227.7273  1.86231503 44333
BEIDOU-3 G2             
1 45344U 20017A   26175.32873311 -.00000135  00000+0  00000+0 0  9997
2 45344   2.8791  47.4748 0002391  35.4850  27.9542  1.00271948 23335
COSMOS 2545 [GLONASS-M] 
1 45358U 20018A   26173.38622922 -.00000076  00000+0  00000+0 0  9991
2 45358  64.3519 312.2361 0008556 229.6925 130.2259  2.13102349 48775
BEIDOU-3 G3             
1 45807U 20040A   26175.61949449 -.00000347  00000+0  00000+0 0  9990
2 45807   2.4657  67.5058 0002593 328.2392 210.5517  1.00275719 22141
NAVSTAR 79 (USA 304)    
1 45854U 20041A   26173.71775760 -.00000098  00000+0  00000+0 0  9998
2 45854  56.6735  28.7279 0064233 204.6080 154.4402  2.00558666 44144
GALAXY 30 (G-30)        
1 46114U 20056C   26175.23825740  .00000044  00000+0  00000+0 0  9997
2 46114   0.0116  48.6374 0002203  40.4727 144.0438  1.00270568 21364
COSMOS 2547 [GLONASS-K] 
1 46805U 20075A   26174.04506766  .00000094  00000+0  00000+0 0  9992
2 46805  64.5998 192.2800 0009389 239.8936 120.0622  2.13100075 44030
NAVSTAR 80 (USA 309)    
1 46826U 20078A   26174.74953767  .00000065  00000+0  00000+0 0  9990
2 46826  53.9790 210.5121 0073734 207.4039 153.1814  2.00565058 41641
NAVSTAR 81 (USA 319)    
1 48859U 21054A   26175.02578091 -.00000104  00000+0  00000+0 0  9993
2 48859  55.1708 332.1841 0025615 228.3259 158.0115  2.00568788 36895
QZS-1R (MICHIBIKI-1R)   
1 49336U 21096A   26174.62472878 -.00000312  00000+0  00000+0 0  9992
2 49336  37.4749  79.4864 0755289 271.9239 278.8307  1.00253892 17078
GSAT0223 (GALILEO 27)   
1 49809U 21116A   26174.44047914 -.00000098  00000+0  00000+0 0  9990
2 49809  57.1590 341.5051 0001600 183.5383 174.0725  1.70476308 28288
GSAT0224 (GALILEO 28)   
1 49810U 21116B   26174.82570932 -.00000098  00000+0  00000+0 0  9995
2 49810  57.1589 341.4937 0001340 159.7817 186.8805  1.70476382 28314
COSMOS 2557 [GLONASS-K] 
1 52984U 22075A   26173.27080705 -.00000076  00000+0  00000+0 0  9994
2 52984  64.2952 314.3058 0010303 273.7574  86.1177  2.13102021 30829
COSMOS 2559 [GLONASS-K] 
1 54031U 22130A   26174.96748313 -.00000084  00000+0  00000+0 0  9993
2 54031  64.2668 314.3295 0012689 178.7252 181.2697  2.13101758 28835
COSMOS 2564 [GLONASS-M] 
1 54377U 22161A   26174.81073219  .00000101  00000+0  00000+0 0  9999
2 54377  64.7423 192.4918 0012242 224.9828 134.9691  2.13102094 27772
NAVSTAR 82 (USA 343)    
1 55268U 23009A   26174.93768975  .00000065  00000+0  00000+0 0  9993
2 55268  55.1237 148.2534 0006252 317.3029  43.8164  2.00571203 25382
BEIDOU-3 G4             
1 56564U 23066A   26175.17475344 -.00000274  00000+0  00000+0 0  9991
2 56564   0.4786 333.3176 0004663 176.2332 325.7496  1.00271993 11462
NVS-01 (IRNSS-1J)       
1 56759U 23076A   26175.19003134 -.00000326  00000+0  00000+0 0  9992
2 56759   2.1490 244.0147 0002878  15.0340 211.2147  1.00276054 11184
COSMOS 2569 [GLONASS-K2]
1 57517U 23114A   26172.94601313 -.00000057  00000+0  00000+0 0  9992
2 57517  65.3047  72.4599 0010483 296.8456  63.0820  2.13103733 22369
BEIDOU-3 M28            
1 58654U 23207A   26174.20581326 -.00000095  00000+0  00000+0 0  9992
2 58654  55.7580  62.0998 0003071 351.0543   8.9757  1.86229798 16955
BEIDOU-3 M26            
1 58655U 23207B   26174.00330983 -.00000094  00000+0  00000+0 0  9991
2 58655  55.7601  62.0932 0002847 321.8026  38.2128  1.86229802 16931
